[{"OBJECT_NAME":"ALOS (DAICHI)","OBJECT_ID":"2006-002A","EPOCH":"2026-04-16T14:59:10.056480","MEAN_MOTION":14.69921366,"ECCENTRICITY":0.00016106,"INCLINATION":98.1278,"RA_OF_ASC_NODE":62.4083,"ARG_OF_PERICENTER":112.1915,"MEAN_ANOMALY":247.9462,"EPHEMERIS_TYPE":0,"CLASSIFICATION_TYPE":"U","NORAD_CAT_ID":28931,"ELEMENT_SET_NO":999,"REV_AT_EPOCH":7905,"BSTAR":0.00011738716,"MEAN_MOTION_DOT":6.53e-6,"MEAN_MOTION_DDOT":0},{"OBJECT_NAME":"H-2A R/B","OBJECT_ID":"2006-002B","EPOCH":"2026-04-16T16:08:09.495168","MEAN_MOTION":15.17253084,"ECCENTRICITY":0.00526567,"INCLINATION":98.2484,"RA_OF_ASC_NODE":257.0047,"ARG_OF_PERICENTER":112.2484,"MEAN_ANOMALY":248.4343,"EPHEMERIS_TYPE":0,"CLASSIFICATION_TYPE":"U","NORAD_CAT_ID":28932,"ELEMENT_SET_NO":999,"REV_AT_EPOCH":10019,"BSTAR":0.00026140958,"MEAN_MOTION_DOT":5.309e-5,"MEAN_MOTION_DDOT":0},{"OBJECT_NAME":"RESURS-DK 1","OBJECT_ID":"2006-021A","EPOCH":"2026-04-16T19:38:14.183808","MEAN_MOTION":15.1295273,"ECCENTRICITY":0.00025475,"INCLINATION":69.9296,"RA_OF_ASC_NODE":138.3809,"ARG_OF_PERICENTER":1.1043,"MEAN_ANOMALY":359.0128,"EPHEMERIS_TYPE":0,"CLASSIFICATION_TYPE":"U","NORAD_CAT_ID":29228,"ELEMENT_SET_NO":999,"REV_AT_EPOCH":9329,"BSTAR":7.3071005e-5,"MEAN_MOTION_DOT":1.183e-5,"MEAN_MOTION_DDOT":0},{"OBJECT_NAME":"CZ-4B R/B","OBJECT_ID":"2006-046C","EPOCH":"2026-04-16T20:44:43.527552","MEAN_MOTION":15.17283089,"ECCENTRICITY":0.00343118,"INCLINATION":97.5519,"RA_OF_ASC_NODE":151.6646,"ARG_OF_PERICENTER":133.5179,"MEAN_ANOMALY":226.8915,"EPHEMERIS_TYPE":0,"CLASSIFICATION_TYPE":"U","NORAD_CAT_ID":29507,"ELEMENT_SET_NO":999,"REV_AT_EPOCH":6583,"BSTAR":0.00015275729,"MEAN_MOTION_DOT":3.018e-5,"MEAN_MOTION_DDOT":0},{"OBJECT_NAME":"CZ-2C R/B","OBJECT_ID":"2007-010B","EPOCH":"2026-04-16T18:27:23.563008","MEAN_MOTION":14.20260116,"ECCENTRICITY":0.00590303,"INCLINATION":98.4023,"RA_OF_ASC_NODE":218.1469,"ARG_OF_PERICENTER":182.3484,"MEAN_ANOMALY":177.7425,"EPHEMERIS_TYPE":0,"CLASSIFICATION_TYPE":"U","NORAD_CAT_ID":31114,"ELEMENT_SET_NO":999,"REV_AT_EPOCH":98512,"BSTAR":5.243531e-5,"MEAN_MOTION_DOT":7.3e-7,"MEAN_MOTION_DDOT":0},{"OBJECT_NAME":"COSMO-SKYMED 1","OBJECT_ID":"2007-023A","EPOCH":"2026-04-16T23:20:56.469120","MEAN_MOTION":14.96804197,"ECCENTRICITY":0.00012843,"INCLINATION":97.8877,"RA_OF_ASC_NODE":298.3203,"ARG_OF_PERICENTER":86.097,"MEAN_ANOMALY":274.0398,"EPHEMERIS_TYPE":0,"CLASSIFICATION_TYPE":"U","NORAD_CAT_ID":31598,"ELEMENT_SET_NO":999,"REV_AT_EPOCH":2063,"BSTAR":0.00010614448,"MEAN_MOTION_DOT":1.155e-5,"MEAN_MOTION_DDOT":0},{"OBJECT_NAME":"COSMOS 2428","OBJECT_ID":"2007-029A","EPOCH":"2026-04-16T23:25:59.404800","MEAN_MOTION":14.12947776,"ECCENTRICITY":0.00094537,"INCLINATION":70.9398,"RA_OF_ASC_NODE":122.9834,"ARG_OF_PERICENTER":236.014,"MEAN_ANOMALY":124.0084,"EPHEMERIS_TYPE":0,"CLASSIFICATION_TYPE":"U","NORAD_CAT_ID":31792,"ELEMENT_SET_NO":999,"REV_AT_EPOCH":96950,"BSTAR":-5.1533154e-5,"MEAN_MOTION_DOT":-1.44e-6,"MEAN_MOTION_DDOT":0},{"OBJECT_NAME":"SL-16 R/B","OBJECT_ID":"2007-029B","EPOCH":"2026-04-16T16:38:12.238944","MEAN_MOTION":14.14841304,"ECCENTRICITY":0.00026983,"INCLINATION":70.973,"RA_OF_ASC_NODE":92.4966,"ARG_OF_PERICENTER":271.4805,"MEAN_ANOMALY":261.7754,"EPHEMERIS_TYPE":0,"CLASSIFICATION_TYPE":"U","NORAD_CAT_ID":31793,"ELEMENT_SET_NO":999,"REV_AT_EPOCH":97074,"BSTAR":-2.0422323e-5,"MEAN_MOTION_DOT":-8.7e-7,"MEAN_MOTION_DDOT":0},{"OBJECT_NAME":"KORONAS-FOTON","OBJECT_ID":"2009-003A","EPOCH":"2026-04-16T21:00:50.861088","MEAN_MOTION":15.4437187,"ECCENTRICITY":0.00105995,"INCLINATION":82.4302,"RA_OF_ASC_NODE":236.143,"ARG_OF_PERICENTER":23.6854,"MEAN_ANOMALY":336.488,"EPHEMERIS_TYPE":0,"CLASSIFICATION_TYPE":"U","NORAD_CAT_ID":33504,"ELEMENT_SET_NO":999,"REV_AT_EPOCH":95163,"BSTAR":0.00017873992,"MEAN_MOTION_DOT":8.301e-5,"MEAN_MOTION_DDOT":0},{"OBJECT_NAME":"CZ-2C R/B","OBJECT_ID":"2011-030B","EPOCH":"2026-04-16T15:55:39.036864","MEAN_MOTION":14.81340802,"ECCENTRICITY":0.00513035,"INCLINATION":97.8606,"RA_OF_ASC_NODE":63.1869,"ARG_OF_PERICENTER":225.6863,"MEAN_ANOMALY":307.7402,"EPHEMERIS_TYPE":0,"CLASSIFICATION_TYPE":"U","NORAD_CAT_ID":37731,"ELEMENT_SET_NO":999,"REV_AT_EPOCH":79571,"BSTAR":7.3042071e-5,"MEAN_MOTION_DOT":5.28e-6,"MEAN_MOTION_DDOT":0},{"OBJECT_NAME":"H-2A R/B","OBJECT_ID":"2012-025E","EPOCH":"2026-04-16T16:05:33.447264","MEAN_MOTION":14.95409091,"ECCENTRICITY":0.00439979,"INCLINATION":98.4792,"RA_OF_ASC_NODE":76.7811,"ARG_OF_PERICENTER":186.4609,"MEAN_ANOMALY":173.6048,"EPHEMERIS_TYPE":0,"CLASSIFICATION_TYPE":"U","NORAD_CAT_ID":38341,"ELEMENT_SET_NO":999,"REV_AT_EPOCH":75389,"BSTAR":0.00016545256,"MEAN_MOTION_DOT":1.793e-5,"MEAN_MOTION_DDOT":0},{"OBJECT_NAME":"SHIJIAN-16 (SJ-16)","OBJECT_ID":"2013-057A","EPOCH":"2026-04-16T23:21:48.035232","MEAN_MOTION":14.92461765,"ECCENTRICITY":0.00158015,"INCLINATION":74.9698,"RA_OF_ASC_NODE":112.6064,"ARG_OF_PERICENTER":14.0287,"MEAN_ANOMALY":346.1337,"EPHEMERIS_TYPE":0,"CLASSIFICATION_TYPE":"U","NORAD_CAT_ID":39358,"ELEMENT_SET_NO":999,"REV_AT_EPOCH":67721,"BSTAR":0.00011659963,"MEAN_MOTION_DOT":1.169e-5,"MEAN_MOTION_DDOT":0},{"OBJECT_NAME":"SL-4 R/B","OBJECT_ID":"2014-021B","EPOCH":"2026-04-16T20:29:11.663808","MEAN_MOTION":15.40489571,"ECCENTRICITY":0.00931821,"INCLINATION":51.6052,"RA_OF_ASC_NODE":150.9058,"ARG_OF_PERICENTER":242.5215,"MEAN_ANOMALY":116.6273,"EPHEMERIS_TYPE":0,"CLASSIFICATION_TYPE":"U","NORAD_CAT_ID":39679,"ELEMENT_SET_NO":999,"REV_AT_EPOCH":66215,"BSTAR":0.00018635537,"MEAN_MOTION_DOT":8.501e-5,"MEAN_MOTION_DDOT":0},{"OBJECT_NAME":"ALOS-2","OBJECT_ID":"2014-029A","EPOCH":"2026-04-16T22:21:13.737600","MEAN_MOTION":14.79452445,"ECCENTRICITY":0.00018512,"INCLINATION":97.9201,"RA_OF_ASC_NODE":204.9727,"ARG_OF_PERICENTER":90.6564,"MEAN_ANOMALY":269.4859,"EPHEMERIS_TYPE":0,"CLASSIFICATION_TYPE":"U","NORAD_CAT_ID":39766,"ELEMENT_SET_NO":999,"REV_AT_EPOCH":64252,"BSTAR":-4.8829916e-5,"MEAN_MOTION_DOT":-4.16e-6,"MEAN_MOTION_DDOT":0},{"OBJECT_NAME":"YAOGAN-29","OBJECT_ID":"2015-069A","EPOCH":"2026-04-16T23:35:46.053024","MEAN_MOTION":14.83036325,"ECCENTRICITY":0.0001156,"INCLINATION":98.0087,"RA_OF_ASC_NODE":135.5056,"ARG_OF_PERICENTER":153.2654,"MEAN_ANOMALY":206.8619,"EPHEMERIS_TYPE":0,"CLASSIFICATION_TYPE":"U","NORAD_CAT_ID":41038,"ELEMENT_SET_NO":999,"REV_AT_EPOCH":56155,"BSTAR":6.8626806e-5,"MEAN_MOTION_DOT":5.04e-6,"MEAN_MOTION_DDOT":0},{"OBJECT_NAME":"ASTRO-H (HITOMI)","OBJECT_ID":"2016-012A","EPOCH":"2026-04-16T16:56:49.317504","MEAN_MOTION":15.10232595,"ECCENTRICITY":0.00095328,"INCLINATION":30.9981,"RA_OF_ASC_NODE":111.1686,"ARG_OF_PERICENTER":353.4409,"MEAN_ANOMALY":6.6103,"EPHEMERIS_TYPE":0,"CLASSIFICATION_TYPE":"U","NORAD_CAT_ID":41337,"ELEMENT_SET_NO":999,"REV_AT_EPOCH":55798,"BSTAR":9.7819618e-5,"MEAN_MOTION_DOT":1.736e-5,"MEAN_MOTION_DDOT":0}]
