ALOS (DAICHI)           
1 28931U 06002A   26106.62442195  .00000653  00000+0  11739-3 0  9996
2 28931  98.1278  62.4083 0001610 112.1915 247.9462 14.69921366 79053
H-2A R/B                
1 28932U 06002B   26106.67233212  .00005309  00000+0  26141-3 0  9996
2 28932  98.2484 257.0047 0052656 112.2484 248.4343 15.17253084100197
RESURS-DK 1             
1 29228U 06021A   26106.81821972  .00001183  00000+0  73071-4 0  9999
2 29228  69.9296 138.3809 0002547   1.1043 359.0128 15.12952730 93291
CZ-4B R/B               
1 29507U 06046C   26106.86439268  .00003018  00000+0  15276-3 0  9995
2 29507  97.5519 151.6646 0034311 133.5179 226.8915 15.17283089 65830
CZ-2C R/B               
1 31114U 07010B   26106.76902272  .00000073  00000+0  52435-4 0  9990
2 31114  98.4023 218.1469 0059030 182.3484 177.7425 14.20260116985127
COSMO-SKYMED 1          
1 31598U 07023A   26106.97287580  .00001155  00000+0  10614-3 0  9995
2 31598  97.8877 298.3203 0001284  86.0970 274.0398 14.96804197 20639
COSMOS 2428             
1 31792U 07029A   26106.97638200 -.00000144  00000+0 -51533-4 0  9991
2 31792  70.9398 122.9834 0009453 236.0140 124.0084 14.12947776969502
SL-16 R/B               
1 31793U 07029B   26106.69319721 -.00000087  00000+0 -20422-4 0  9994
2 31793  70.9730  92.4966 0002698 271.4805 261.7754 14.14841304970748
KORONAS-FOTON           
1 33504U 09003A   26106.87558867  .00008301  00000+0  17874-3 0  9997
2 33504  82.4302 236.1430 0010599  23.6854 336.4880 15.44371870951633
CZ-2C R/B               
1 37731U 11030B   26106.66364626  .00000528  00000+0  73042-4 0  9994
2 37731  97.8606  63.1869 0051303 225.6863 307.7402 14.81340802795719
H-2A R/B                
1 38341U 12025E   26106.67052601  .00001793  00000+0  16545-3 0  9994
2 38341  98.4792  76.7811 0043997 186.4609 173.6048 14.95409091753899
SHIJIAN-16 (SJ-16)      
1 39358U 13057A   26106.97347263  .00001169  00000+0  11660-3 0  9993
2 39358  74.9698 112.6064 0015801  14.0287 346.1337 14.92461765677215
SL-4 R/B                
1 39679U 14021B   26106.85360722  .00008501  00000+0  18636-3 0  9990
2 39679  51.6052 150.9058 0093182 242.5215 116.6273 15.40489571662157
ALOS-2                  
1 39766U 14029A   26106.93140900 -.00000416  00000+0 -48830-4 0  9997
2 39766  97.9201 204.9727 0001851  90.6564 269.4859 14.79452445642524
YAOGAN-29               
1 41038U 15069A   26106.98317191  .00000504  00000+0  68627-4 0  9992
2 41038  98.0087 135.5056 0001156 153.2654 206.8619 14.83036325561553
ASTRO-H (HITOMI)        
1 41337U 16012A   26106.70612636  .00001736  00000+0  97820-4 0  9990
2 41337  30.9981 111.1686 0009532 353.4409   6.6103 15.10232595557984
